NORAD_CAT_ID,OBJECT_NAME,OBJECT_TYPE,EPOCH,MEAN_MOTION,ECCENTRICITY,INCLINATION,RA_OF_ASC_NODE,ARG_OF_PERICENTER,MEAN_ANOMALY,BSTAR,MEAN_MOTION_DOT,MEAN_MOTION_DDOT,TLE_LINE0,TLE_LINE1,TLE_LINE2,SEMIMAJOR_AXIS,PERIOD,APOGEE,PERIGEE,DECAYED
51784.0,STARLINK-3632,PAYLOAD,2023-04-23 00:52:51,15.08856877,0.0001393,53.2177,30.1717,88.2752,271.84,0.00061196,9.469e-05,0.0,0 STARLINK-3632,1 51784U 22017S   23113.03670990  .00009469  00000-0  61196-3 0  9995,2 51784  53.2177  30.1717 0001393  88.2752 271.8400 15.08856877 65164,6917.829,95.436,540.657,538.73,0.0
51784.0,STARLINK-3632,PAYLOAD,2023-04-23 18:22:06,15.08847721,0.0001442,53.2171,26.9011,92.7588,267.3569,0.00070238,0.0001091,0.0,0 STARLINK-3632,1 51784U 22017S   23113.76535108  .00010910  00000-0  70238-3 0  9996,2 51784  53.2171  26.9011 0001442  92.7588 267.3569 15.08847721 65276,6917.857,95.437,540.719,538.724,0.0
51784.0,STARLINK-3632,PAYLOAD,2023-04-24 03:54:24,15.08885278,0.0001362,53.2178,25.1154,90.8069,269.3079,0.0017801,0.00028191,0.0,0 STARLINK-3632,1 51784U 22017S   23114.16278360  .00028191  00000-0  17801-2 0  9991,2 51784  53.2178  25.1154 0001362  90.8069 269.3079 15.08885278 63686,6917.742,95.435,540.549,538.665,0.0
51784.0,STARLINK-3632,PAYLOAD,2023-04-24 18:12:51,15.08896356,0.00013,53.217,22.4382,106.6921,253.4214,0.0015258,0.00024116,0.0,0 STARLINK-3632,1 51784U 22017S   23114.75892920  .00024116  00000-0  15258-2 0  9997,2 51784  53.2170  22.4382 0001300 106.6921 253.4214 15.08896356 65424,6917.708,95.434,540.472,538.674,0.0
51784.0,STARLINK-3632,PAYLOAD,2023-04-25 00:34:23,15.08894926,0.000125,53.2168,21.249,105.7938,254.3192,0.001006,0.00015783,0.0,0 STARLINK-3632,1 51784U 22017S   23115.02388060  .00015783  00000-0  10060-2 0  9999,2 51784  53.2168  21.2490 0001250 105.7938 254.3192 15.08894926 63817,6917.713,95.434,540.442,538.713,0.0
51784.0,STARLINK-3632,PAYLOAD,2023-04-26 03:36:00,15.08760901,0.0001489,53.2176,16.197,109.1352,250.9801,-0.00075162,-0.00012204,0.0,0 STARLINK-3632,1 51784U 22017S   23116.15000597 -.00012204  00000-0 -75162-3 0  9992,2 51784  53.2176  16.1970 0001489 109.1352 250.9801 15.08760901 63986,6918.122,95.443,541.017,538.957,0.0
51784.0,STARLINK-3632,PAYLOAD,2023-04-26 17:54:28,15.08805395,0.0001234,53.2162,13.5229,97.9485,262.1647,0.00062463,9.658e-05,0.0,0 STARLINK-3632,1 51784U 22017S   23116.74616416  .00009658  00000-0  62463-3 0  9997,2 51784  53.2162  13.5229 0001234  97.9485 262.1647 15.08805395 64079,6917.986,95.44,540.705,538.997,0.0
51784.0,STARLINK-3632,PAYLOAD,2023-04-27 00:16:00,15.08832934,0.0001849,53.2171,12.3342,110.9738,249.1452,0.00075312,0.00011716,0.0,0 STARLINK-3632,1 51784U 22017S   23117.01111965  .00011716  00000-0  75312-3 0  9992,2 51784  53.2171  12.3342 0001849 110.9738 249.1452 15.08832934 65766,6917.902,95.438,541.046,538.488,0.0
51784.0,STARLINK-3632,PAYLOAD,2023-04-28 01:42:10,15.08851197,0.0001568,53.2175,7.5748,116.1631,243.9523,0.00021987,3.214e-05,0.0,0 STARLINK-3632,1 51784U 22017S   23118.07095618  .00003214  00000-0  21987-3 0  9998,2 51784  53.2175   7.5748 0001568 116.1631 243.9523 15.08851197 65925,6917.846,95.437,540.796,538.626,0.0
51784.0,STARLINK-3632,PAYLOAD,2023-04-28 09:39:06,15.08844839,0.0001799,53.2172,6.0885,95.3569,264.7629,-0.00016128,-2.854e-05,0.0,0 STARLINK-3632,1 51784U 22017S   23118.40215984 -.00002854  00000-0 -16128-3 0  9997,2 51784  53.2172   6.0885 0001799  95.3569 264.7629 15.08844839 65970,6917.866,95.437,540.975,538.486,0.0
51784.0,STARLINK-3632,PAYLOAD,2023-04-28 23:57:35,15.08837756,0.0001859,53.218,3.4119,97.8688,262.2515,-0.00020706,-3.582e-05,0.0,0 STARLINK-3632,1 51784U 22017S   23118.99832187 -.00003582  00000-0 -20706-3 0  9997,2 51784  53.2180   3.4119 0001859  97.8688 262.2515 15.08837756 64411,6917.887,95.438,541.038,538.466,0.0
51784.0,STARLINK-3632,PAYLOAD,2023-04-29 19:02:12,15.08845571,0.0001738,53.2172,359.8429,94.1021,266.017,0.00032943,4.96e-05,0.0,0 STARLINK-3632,1 51784U 22017S   23119.79320012  .00004960  00000-0  32943-3 0  9990,2 51784  53.2172 359.8429 0001738  94.1021 266.0170 15.08845571 66180,6917.863,95.437,540.931,538.526,0.0
51784.0,STARLINK-3632,PAYLOAD,2023-04-29 22:12:58,15.08849901,0.0001663,53.217,359.2485,94.9753,265.1429,0.00048914,7.507e-05,0.0,0 STARLINK-3632,1 51784U 22017S   23119.92567909  .00007507  00000-0  48914-3 0  9998,2 51784  53.2170 359.2485 0001663  94.9753 265.1429 15.08849901 64558,6917.85,95.437,540.866,538.565,0.0
51784.0,STARLINK-3632,PAYLOAD,2023-04-30 15:42:13,15.08844633,0.0001683,53.2169,355.9775,91.1472,268.9712,0.00031336,4.703e-05,0.0,0 STARLINK-3632,1 51784U 22017S   23120.65432255  .00004703  00000-0  31336-3 0  9990,2 51784  53.2169 355.9775 0001683  91.1472 268.9712 15.08844633 66319,6917.866,95.437,540.896,538.567,0.0
51784.0,STARLINK-3632,PAYLOAD,2023-04-30 22:03:45,15.08843848,0.0001551,53.2171,354.7865,103.3884,256.7281,0.00026407,3.918e-05,0.0,0 STARLINK-3632,1 51784U 22017S   23120.91928189  .00003918  00000-0  26407-3 0  9995,2 51784  53.2171 354.7865 0001551 103.3884 256.7281 15.08843848 64700,6917.869,95.437,540.807,538.661,0.0
51784.0,STARLINK-3632,PAYLOAD,2023-05-01 21:54:32,15.08850768,0.0001529,53.2175,350.3263,93.9913,266.1254,0.00046285,7.088e-05,0.0,0 STARLINK-3632,1 51784U 22017S   23121.91288047  .00007088  00000-0  46285-3 0  9996,2 51784  53.2175 350.3263 0001529  93.9913 266.1254 15.08850768 66504,6917.847,95.437,540.77,538.655,0.0
51784.0,STARLINK-3632,PAYLOAD,2023-05-02 20:09:56,15.08846479,0.0001465,53.2177,346.1641,78.1771,281.9385,0.00017978,2.575e-05,0.0,0 STARLINK-3632,1 51784U 22017S   23122.84023964  .00002575  00000-0  17978-3 0  9997,2 51784  53.2177 346.1641 0001465  78.1771 281.9385 15.08846479 66644,6917.861,95.437,540.739,538.712,0.0
51784.0,STARLINK-3632,PAYLOAD,2023-05-02 21:45:19,15.08848989,0.0001374,53.2173,345.867,89.147,270.9679,0.00022681,3.324e-05,0.0,0 STARLINK-3632,1 51784U 22017S   23122.90647778  .00003324  00000-0  22681-3 0  9999,2 51784  53.2173 345.8670 0001374  89.1470 270.9679 15.08848989 65006,6917.853,95.437,540.668,538.767,0.0
51784.0,STARLINK-3632,PAYLOAD,2023-05-03 07:17:38,15.08840816,0.000129,53.2172,344.0824,90.0036,270.1104,2.4753e-05,1.06e-06,0.0,0 STARLINK-3632,1 51784U 22017S   23123.30391930  .00000106  00000-0  24753-4 0  9998,2 51784  53.2172 344.0824 0001290  90.0036 270.1104 15.08840816 65065,6917.878,95.438,540.635,538.85,0.0
51784.0,STARLINK-3632,PAYLOAD,2023-05-03 20:00:43,15.08839073,0.0001327,53.2167,341.7043,92.936,267.1784,-7.4851e-05,-1.479e-05,0.0,0 STARLINK-3632,1 51784U 22017S   23123.83384133 -.00001479  00000-0 -74851-4 0  9993,2 51784  53.2167 341.7043 0001327  92.9360 267.1784 15.08839073 66792,6917.883,95.438,540.666,538.83,0.0
51784.0,STARLINK-3632,PAYLOAD,2023-05-03 21:36:06,15.08841104,0.0001334,53.2166,341.4072,93.4855,266.629,-5.1327e-05,-1.105e-05,0.0,0 STARLINK-3632,1 51784U 22017S   23123.90008011 -.00001105  00000-0 -51327-4 0  9998,2 51784  53.2166 341.4072 0001334  93.4855 266.6290 15.08841104 65156,6917.877,95.437,540.665,538.819,0.0
51784.0,STARLINK-3632,PAYLOAD,2023-05-04 13:29:58,15.08839456,0.0001273,53.2162,338.4343,95.2279,264.8858,3.3078e-05,2.39e-06,0.0,0 STARLINK-3632,1 51784U 22017S   23124.56248126  .00000239  00000-0  33078-4 0  9992,2 51784  53.2162 338.4343 0001273  95.2279 264.8858 15.08839456 65259,6917.882,95.438,540.628,538.866,0.0
51784.0,STARLINK-3632,PAYLOAD,2023-05-04 21:26:54,15.08839891,0.0001138,53.2169,336.9474,103.4167,256.6952,5.9672e-05,6.62e-06,0.0,0 STARLINK-3632,1 51784U 22017S   23124.89368384  .00000662  00000-0  59672-4 0  9995,2 51784  53.2169 336.9474 0001138 103.4167 256.6952 15.08839891 65305,6917.881,95.438,540.533,538.958,0.0
51784.0,STARLINK-3632,PAYLOAD,2023-05-04 23:02:16,15.08853459,0.000119,53.2172,336.6493,89.711,270.4018,-6.1781e-05,-1.271e-05,0.0,0 STARLINK-3632,1 51784U 22017S   23124.95991794 -.00001271  00000-0 -61781-4 0  9992,2 51784  53.2172 336.6493 0001190  89.7110 270.4018 15.08853459 66965,6917.839,95.437,540.527,538.881,0.0
51784.0,STARLINK-3632,PAYLOAD,2023-05-05 21:17:41,15.08842413,0.0001097,53.2172,332.4868,95.5205,264.5912,0.00010202,1.336e-05,0.0,0 STARLINK-3632,1 51784U 22017S   23125.88728463  .00001336  00000-0  10202-3 0  9997,2 51784  53.2172 332.4868 0001097  95.5205 264.5912 15.08842413 65459,6917.873,95.437,540.497,538.979,0.0
51784.0,STARLINK-3632,PAYLOAD,2023-05-05 22:53:04,15.0884395,0.0001096,53.2172,332.1894,89.7856,270.3261,0.00011615,1.561e-05,0.0,0 STARLINK-3632,1 51784U 22017S   23125.95352347  .00001561  00000-0  11615-3 0  9998,2 51784  53.2172 332.1894 0001096  89.7856 270.3261 15.08843950 67115,6917.868,95.437,540.492,538.975,0.0
51784.0,STARLINK-3632,PAYLOAD,2023-05-06 21:08:28,15.0884334,0.0001277,53.2169,328.0245,76.94,283.1735,0.00013595,1.877e-05,0.0,0 STARLINK-3632,1 51784U 22017S   23126.88088566  .00001877  00000-0  13595-3 0  9999,2 51784  53.2169 328.0245 0001277  76.9400 283.1735 15.08843340 67255,6917.87,95.437,540.619,538.852,0.0
51784.0,STARLINK-3632,PAYLOAD,2023-05-07 19:23:52,15.08841266,0.0001154,53.2164,323.8611,89.2303,270.8821,6.6356e-05,7.68e-06,0.0,0 STARLINK-3632,1 51784U 22017S   23127.80824777  .00000768  00000-0  66356-4 0  9996,2 51784  53.2164 323.8611 0001154  89.2303 270.8821 15.08841266 67392,6917.877,95.437,540.54,538.943,0.0
51784.0,STARLINK-3632,PAYLOAD,2023-05-08 19:14:39,15.08851765,0.0001193,53.2177,319.3999,92.4139,267.699,7.4399e-05,8.97e-06,0.0,0 STARLINK-3632,1 51784U 22017S   23128.80184038  .00000897  00000-0  74399-4 0  9995,2 51784  53.2177 319.3999 0001193  92.4139 267.6990 15.08851765 65890,6917.844,95.437,540.535,538.884,0.0
51784.0,STARLINK-3632,PAYLOAD,2023-05-09 07:57:44,15.0884104,0.0001181,53.2173,317.021,98.5318,261.5808,9.7653e-05,1.267e-05,0.0,0 STARLINK-3632,1 51784U 22017S   23129.33176523  .00001267  00000-0  97653-4 0  9994,2 51784  53.2173 317.0210 0001181  98.5318 261.5808 15.08841040 67629,6917.877,95.437,540.559,538.925,0.0
